start=new Date('2023-01-14T00:00:00.000Z').valueOf();
sats=[{"DECAY_DATE":null,"FILE":"3743722","SITE":"AFETR","OBJECT_TYPE":"PAYLOAD","MEAN_MOTION":"15.06386470","EPOCH":"2023-01-13T17:26:18.745440","INCLINATION":"53.0528","NORAD_CAT_ID":"47358","TLE_LINE2":"2 47358  53.0528 158.4918 0001248  74.5591 285.5536 15.06386470109985","MEAN_MOTION_DOT":"-0.00001835","PERIOD":"95.593","OBJECT_ID":"2021-005K","APOAPSIS":"548.119","COUNTRY_CODE":"US","LAUNCH_DATE":"2021-01-20","CLASSIFICATION_TYPE":"U","OBJECT_NAME":"STARLINK-2055","REV_AT_EPOCH":"10998","TLE_LINE1":"1 47358U 21005K   23013.72660585 -.00001835  00000-0 -10434-3 0  9997","GP_ID":"222972043","BSTAR":"-0.00010434000000","TIME_SYSTEM":"UTC","ECCENTRICITY":"0.00012480","RCS_SIZE":"LARGE","CENTER_NAME":"EARTH","RA_OF_ASC_NODE":"158.4918","MEAN_ANOMALY":"285.5536","ARG_OF_PERICENTER":"74.5591","ELEMENT_SET_NO":"999","MEAN_MOTION_DDOT":"0.0000000000000","SEMIMAJOR_AXIS":"6925.390","EPHEMERIS_TYPE":"0","REF_FRAME":"TEME","PERIAPSIS":"546.391","MEAN_ELEMENT_THEORY":"SGP4"},{"CENTER_NAME":"EARTH","RCS_SIZE":"LARGE","ECCENTRICITY":"0.00015960","TIME_SYSTEM":"UTC","MEAN_ELEMENT_THEORY":"SGP4","PERIAPSIS":"546.139","REF_FRAME":"TEME","EPHEMERIS_TYPE":"0","SEMIMAJOR_AXIS":"6925.379","MEAN_MOTION_DDOT":"0.0000000000000","ELEMENT_SET_NO":"999","ARG_OF_PERICENTER":"90.6824","MEAN_ANOMALY":"269.4348","RA_OF_ASC_NODE":"183.4445","TLE_LINE2":"2 47359  53.0542 183.4445 0001596  90.6824 269.4348 15.06390074109638","PERIOD":"95.593","MEAN_MOTION_DOT":"-0.00003036","OBJECT_ID":"2021-005L","NORAD_CAT_ID":"47359","INCLINATION":"53.0542","EPOCH":"2023-01-13T17:42:56.564352","MEAN_MOTION":"15.06390074","OBJECT_TYPE":"PAYLOAD","SITE":"AFETR","FILE":"3743722","DECAY_DATE":null,"BSTAR":"-0.00018505000000","GP_ID":"222972293","TLE_LINE1":"1 47359U 21005L   23013.73815468 -.00003036  00000-0 -18505-3 0  9993","CLASSIFICATION_TYPE":"U","OBJECT_NAME":"STARLINK-2069","REV_AT_EPOCH":"10963","LAUNCH_DATE":"2021-01-20","COUNTRY_CODE":"US","APOAPSIS":"548.349"},{"APOAPSIS":"548.262","LAUNCH_DATE":"2021-01-20","COUNTRY_CODE":"US","OBJECT_NAME":"STARLINK-2070","CLASSIFICATION_TYPE":"U","REV_AT_EPOCH":"11006","TLE_LINE1":"1 47360U 21005M   23013.74457651  .00003029  00000-0  22208-3 0  9997","GP_ID":"222973039","BSTAR":"0.00022208000000","FILE":"3743722","DECAY_DATE":null,"SITE":"AFETR","OBJECT_TYPE":"PAYLOAD","MEAN_MOTION":"15.06413688","EPOCH":"2023-01-13T17:52:11.410464","INCLINATION":"53.0527","NORAD_CAT_ID":"47360","TLE_LINE2":"2 47360  53.0527 153.4200 0001575  77.4541 282.6624 15.06413688110065","PERIOD":"95.591","OBJECT_ID":"2021-005M","MEAN_MOTION_DOT":"0.00003029","RA_OF_ASC_NODE":"153.4200","MEAN_ANOMALY":"282.6624","ARG_OF_PERICENTER":"77.4541","ELEMENT_SET_NO":"999","MEAN_MOTION_DDOT":"0.0000000000000","SEMIMAJOR_AXIS":"6925.307","EPHEMERIS_TYPE":"0","REF_FRAME":"TEME","PERIAPSIS":"546.081","MEAN_ELEMENT_THEORY":"SGP4","TIME_SYSTEM":"UTC","ECCENTRICITY":"0.00015750","RCS_SIZE":"LARGE","CENTER_NAME":"EARTH"},{"EPHEMERIS_TYPE":"0","SEMIMAJOR_AXIS":"6925.259","MEAN_MOTION_DDOT":"0.0000000000000","ELEMENT_SET_NO":"999","MEAN_ANOMALY":"285.9959","ARG_OF_PERICENTER":"74.1190","RA_OF_ASC_NODE":"158.4599","MEAN_ELEMENT_THEORY":"SGP4","REF_FRAME":"TEME","PERIAPSIS":"546.120","ECCENTRICITY":"0.00014500","TIME_SYSTEM":"UTC","CENTER_NAME":"EARTH","RCS_SIZE":"LARGE","LAUNCH_DATE":"2021-01-20","COUNTRY_CODE":"US","APOAPSIS":"548.128","BSTAR":"0.00112560000000","GP_ID":"222971294","TLE_LINE1":"1 47361U 21005N   23013.73493557  .00016537  00000-0  11256-2 0  9990","CLASSIFICATION_TYPE":"U","REV_AT_EPOCH":"10998","OBJECT_NAME":"STARLINK-2071","EPOCH":"2023-01-13T17:38:18.433248","MEAN_MOTION":"15.06429306","OBJECT_TYPE":"PAYLOAD","SITE":"AFETR","FILE":"3743722","DECAY_DATE":null,"TLE_LINE2":"2 47361  53.0507 158.4599 0001450  74.1190 285.9959 15.06429306109986","MEAN_MOTION_DOT":"0.00016537","PERIOD":"95.590","OBJECT_ID":"2021-005N","NORAD_CAT_ID":"47361","INCLINATION":"53.0507"},{"LAUNCH_DATE":"2021-01-20","COUNTRY_CODE":"US","APOAPSIS":"548.087","GP_ID":"222971544","BSTAR":"0.00004268300000","TLE_LINE1":"1 47362U 21005P   23013.78008514  .00000354  00000-0  42683-4 0  9991","CLASSIFICATION_TYPE":"U","OBJECT_NAME":"STARLINK-2076","REV_AT_EPOCH":"10957","MEAN_MOTION":"15.06401919","EPOCH":"2023-01-13T18:43:19.356096","OBJECT_TYPE":"PAYLOAD","SITE":"AFETR","DECAY_DATE":null,"FILE":"3743722","MEAN_MOTION_DOT":"0.00000354","TLE_LINE2":"2 47362  53.0526 188.2626 0001270  88.1767 271.9368 15.06401919109579","PERIOD":"95.592","OBJECT_ID":"2021-005P","NORAD_CAT_ID":"47362","INCLINATION":"53.0526","SEMIMAJOR_AXIS":"6925.343","MEAN_MOTION_DDOT":"0.0000000000000","EPHEMERIS_TYPE":"0","ELEMENT_SET_NO":"999","ARG_OF_PERICENTER":"88.1767","MEAN_ANOMALY":"271.9368","RA_OF_ASC_NODE":"188.2626","PERIAPSIS":"546.328","REF_FRAME":"TEME","MEAN_ELEMENT_THEORY":"SGP4","ECCENTRICITY":"0.00012700","TIME_SYSTEM":"UTC","CENTER_NAME":"EARTH","RCS_SIZE":"LARGE"},{"ECCENTRICITY":"0.00018550","TIME_SYSTEM":"UTC","CENTER_NAME":"EARTH","RCS_SIZE":"LARGE","EPHEMERIS_TYPE":"0","SEMIMAJOR_AXIS":"6925.365","MEAN_MOTION_DDOT":"0.0000000000000","ELEMENT_SET_NO":"999","MEAN_ANOMALY":"256.9413","ARG_OF_PERICENTER":"103.1783","RA_OF_ASC_NODE":"187.9324","MEAN_ELEMENT_THEORY":"SGP4","PERIAPSIS":"545.946","REF_FRAME":"TEME","EPOCH":"2023-01-13T20:24:11.750400","MEAN_MOTION":"15.06394538","OBJECT_TYPE":"PAYLOAD","SITE":"AFETR","FILE":"3743722","DECAY_DATE":null,"TLE_LINE2":"2 47363  53.0542 187.9324 0001855 103.1783 256.9413 15.06394538109587","OBJECT_ID":"2021-005Q","PERIOD":"95.592","MEAN_MOTION_DOT":"0.00003772","NORAD_CAT_ID":"47363","INCLINATION":"53.0542","COUNTRY_CODE":"US","LAUNCH_DATE":"2021-01-20","APOAPSIS":"548.515","BSTAR":"0.00027205000000","GP_ID":"222972793","TLE_LINE1":"1 47363U 21005Q   23013.85013600  .00003772  00000-0  27205-3 0  9991","OBJECT_NAME":"STARLINK-2077","CLASSIFICATION_TYPE":"U","REV_AT_EPOCH":"10958"},{"ECCENTRICITY":"0.00012890","TIME_SYSTEM":"UTC","CENTER_NAME":"EARTH","RCS_SIZE":"LARGE","ELEMENT_SET_NO":"999","MEAN_MOTION_DDOT":"0.0000000000000","SEMIMAJOR_AXIS":"6925.360","EPHEMERIS_TYPE":"0","RA_OF_ASC_NODE":"188.7265","MEAN_ANOMALY":"270.5070","ARG_OF_PERICENTER":"89.6067","REF_FRAME":"TEME","PERIAPSIS":"546.332","MEAN_ELEMENT_THEORY":"SGP4","OBJECT_TYPE":"PAYLOAD","MEAN_MOTION":"15.06396375","EPOCH":"2023-01-13T16:14:43.143072","DECAY_DATE":null,"FILE":"3743722","SITE":"AFETR","NORAD_CAT_ID":"47366","PERIOD":"95.592","TLE_LINE2":"2 47366  53.0529 188.7265 0001289  89.6067 270.5070 15.06396375109551","MEAN_MOTION_DOT":"0.00001267","OBJECT_ID":"2021-005T","INCLINATION":"53.0529","LAUNCH_DATE":"2021-01-20","COUNTRY_CODE":"US","APOAPSIS":"548.117","GP_ID":"222972540","BSTAR":"0.00010395000000","CLASSIFICATION_TYPE":"U","REV_AT_EPOCH":"10955","OBJECT_NAME":"STARLINK-2081","TLE_LINE1":"1 47366U 21005T   23013.67688823  .00001267  00000-0  10395-3 0  9998"},{"INCLINATION":"53.0550","NORAD_CAT_ID":"47367","TLE_LINE2":"2 47367  53.0550 187.7033 0001307  80.2967 279.8170 15.06393349109590","OBJECT_ID":"2021-005U","PERIOD":"95.593","MEAN_MOTION_DOT":"-0.00000567","DECAY_DATE":null,"FILE":"3743722","SITE":"AFETR","OBJECT_TYPE":"PAYLOAD","EPOCH":"2023-01-13T21:38:28.252896","MEAN_MOTION":"15.06393349","CLASSIFICATION_TYPE":"U","REV_AT_EPOCH":"10959","OBJECT_NAME":"STARLINK-2082","TLE_LINE1":"1 47367U 21005U   23013.90171589 -.00000567  00000-0 -19205-4 0  9995","BSTAR":"-0.00001920500000","GP_ID":"222971794","APOAPSIS":"548.139","COUNTRY_CODE":"US","LAUNCH_DATE":"2021-01-20","RCS_SIZE":"LARGE","CENTER_NAME":"EARTH","TIME_SYSTEM":"UTC","ECCENTRICITY":"0.00013070","MEAN_ELEMENT_THEORY":"SGP4","REF_FRAME":"TEME","PERIAPSIS":"546.329","RA_OF_ASC_NODE":"187.7033","MEAN_ANOMALY":"279.8170","ARG_OF_PERICENTER":"80.2967","ELEMENT_SET_NO":"999","EPHEMERIS_TYPE":"0","MEAN_MOTION_DDOT":"0.0000000000000","SEMIMAJOR_AXIS":"6925.369"},{"MEAN_ANOMALY":"271.1464","ARG_OF_PERICENTER":"88.9676","RA_OF_ASC_NODE":"188.3399","MEAN_MOTION_DDOT":"0.0000000000000","SEMIMAJOR_AXIS":"6925.331","EPHEMERIS_TYPE":"0","ELEMENT_SET_NO":"999","PERIAPSIS":"546.282","REF_FRAME":"TEME","MEAN_ELEMENT_THEORY":"SGP4","TIME_SYSTEM":"UTC","ECCENTRICITY":"0.00013190","RCS_SIZE":"LARGE","CENTER_NAME":"EARTH","APOAPSIS":"548.109","COUNTRY_CODE":"US","LAUNCH_DATE":"2021-01-20","TLE_LINE1":"1 47368U 21005V   23013.76165056 -.00000491  00000-0 -14091-4 0  9996","REV_AT_EPOCH":"10957","CLASSIFICATION_TYPE":"U","OBJECT_NAME":"STARLINK-2084","GP_ID":"222972044","BSTAR":"-0.00001409100000","SITE":"AFETR","DECAY_DATE":null,"FILE":"3743722","MEAN_MOTION":"15.06405791","EPOCH":"2023-01-13T18:16:46.608384","OBJECT_TYPE":"PAYLOAD","INCLINATION":"53.0542","TLE_LINE2":"2 47368  53.0542 188.3399 0001319  88.9676 271.1464 15.06405791109573","PERIOD":"95.592","MEAN_MOTION_DOT":"-0.00000491","OBJECT_ID":"2021-005V","NORAD_CAT_ID":"47368"},{"INCLINATION":"53.0544","NORAD_CAT_ID":"47369","MEAN_MOTION_DOT":"0.00001130","TLE_LINE2":"2 47369  53.0544 168.5953 0001489  78.5267 281.5889 15.06391701109842","PERIOD":"95.593","OBJECT_ID":"2021-005W","DECAY_DATE":null,"FILE":"3743722","SITE":"AFETR","OBJECT_TYPE":"PAYLOAD","EPOCH":"2023-01-13T16:47:50.838144","MEAN_MOTION":"15.06391701","CLASSIFICATION_TYPE":"U","OBJECT_NAME":"STARLINK-2085","REV_AT_EPOCH":"10984","TLE_LINE1":"1 47369U 21005W   23013.69989396  .00001130  00000-0  94772-4 0  9993","BSTAR":"0.00009477200000","GP_ID":"222972294","APOAPSIS":"548.270","LAUNCH_DATE":"2021-01-20","COUNTRY_CODE":"US","RCS_SIZE":"LARGE","CENTER_NAME":"EARTH","TIME_SYSTEM":"UTC","ECCENTRICITY":"0.00014890","MEAN_ELEMENT_THEORY":"SGP4","REF_FRAME":"TEME","PERIAPSIS":"546.208","RA_OF_ASC_NODE":"168.5953","ARG_OF_PERICENTER":"78.5267","MEAN_ANOMALY":"281.5889","ELEMENT_SET_NO":"999","EPHEMERIS_TYPE":"0","SEMIMAJOR_AXIS":"6925.374","MEAN_MOTION_DDOT":"0.0000000000000"}];
